QIANFAN-89              
1 63175U 25046S   25360.57868403  .00000194  00000+0  28168-3 0  9997
2 63175  88.9776 318.6058 0018501  84.6375 275.6886 13.50980596 49278
QIANFAN-90              
1 63176U 25046T   25360.60741803  .00000179  00000+0  25757-3 0  9990
2 63176  88.9776 318.5753 0015451  82.8782 277.4125 13.50980736 49297
QIANFAN-91              
1 66033U 25233A   25360.75672854  .00000040  00000+0  35561-4 0  9990
2 66033  88.9950  60.6886 0014871   6.9589 353.1772 13.62478283  9899
QIANFAN-92              
1 66034U 25233B   25360.66494330  .00000030  00000+0  24200-4 0  9999
2 66034  88.9944  60.6989 0011276   0.4422 359.6743 13.60208097  9888
QIANFAN-93              
1 66035U 25233C   25360.61590848  .00000035  00000+0  30287-4 0  9993
2 66035  89.0027  60.7057 0017030  10.6110 349.5403 13.61575488  9873
QIANFAN-94              
1 66036U 25233D   25360.75415362  .00000034  00000+0  25020-4 0  9994
2 66036  88.9951  60.6711 0015104   2.1200 358.0022 13.68545649  9909
QIANFAN-95              
1 66037U 25233E   25360.72174529  .00000062  00000+0  28550-4 0  9991
2 66037  88.9949  60.4824 0014129   5.3421 354.7910 14.07038403 10007
QIANFAN-96              
1 66038U 25233F   25360.64136485  .00000036  00000+0  30938-4 0  9996
2 66038  88.9788  60.7233 0015818   7.5272 352.6119 13.60750810  9872
